OBJECT_NAME,OBJECT_ID,EPOCH,MEAN_MOTION,ECCENTRICITY,INCLINATION,RA_OF_ASC_NODE,ARG_OF_PERICENTER,MEAN_ANOMALY,EPHEMERIS_TYPE,CLASSIFICATION_TYPE,NORAD_CAT_ID,ELEMENT_SET_NO,REV_AT_EPOCH,BSTAR,MEAN_MOTION_DOT,MEAN_MOTION_DDOT
TJS-14,2025-017A,2026-07-13T06:42:26.066304,1.00274985,.00018366,0.7256,297.5443,294.7617,177.8976,0,U,62804,999,553,0,.114E-5,0
SPAINSAT NG I,2025-021A,2026-07-13T06:45:33.266592,1.00270858,.00002075,0.0142,43.7031,203.1694,174.6609,0,U,62852,999,424,0,.148E-5,0
QZS-6 (MICHIBIKI-6),2025-023A,2026-07-13T07:02:54.104064,1.00267431,.00017752,0.0136,341.3260,151.1886,354.8367,0,U,62876,999,521,0,-.235E-5,0
ZHONGXING-10R,2025-036A,2026-07-13T07:08:46.040640,1.00273099,.00041428,0.0115,273.3397,234.3536,1.1816,0,U,63075,999,522,0,-.355E-5,0
TJS-15,2025-045A,2026-07-12T19:04:53.800032,1.00269974,.0003365,0.3038,85.6382,294.9720,290.6614,0,U,63157,999,501,0,-.265E-5,0
TIANLIAN 2-04,2025-062A,2026-07-13T08:42:39.507264,1.00270032,.003162,4.3094,274.0630,9.3638,218.4957,0,U,63361,999,486,0,-.133E-5,0
TJS-16,2025-064A,2026-07-12T17:07:07.005792,1.00270809,.0002494,1.1614,81.2993,290.2536,336.4481,0,U,63397,999,464,0,-.106E-5,0
TJS-17,2025-073A,2026-07-12T16:57:41.108256,1.00270456,.0001,1.1274,82.4745,302.8111,324.2376,0,U,63524,999,454,0,-.71E-6,0
TIANLIAN 2-05,2025-084A,2026-07-13T06:43:03.506016,1.00270486,.0002568,4.3871,279.5361,153.5573,339.1925,0,U,63662,999,464,0,.127E-5,0
TJS-19,2025-097A,2026-07-12T19:34:18.099264,1.00267046,.000396,3.2447,317.8543,245.4199,162.2041,0,U,63924,999,440,0,-.273E-5,0
CHINASAT 3B,2025-106A,2026-07-13T12:32:57.446304,1.00271851,.0003918,0.0237,142.6506,2.4021,141.9078,0,U,64062,999,432,0,-.49E-6,0
SXM-10,2025-122A,2026-07-13T04:42:55.683648,1.00271163,.00018173,0.0167,36.3871,320.6818,248.5843,0,U,64290,999,394,0,-.19E-6,0
COSMOS 2589,2025-131A,2026-07-12T13:41:30.919200,1.00272485,.0001601,0.0332,118.2803,84.3172,31.2303,0,U,64467,999,381,0,-.29E-5,0
CHINASAT 9C,2025-132A,2026-07-13T07:03:24.056352,1.00269512,.0002866,0.0053,339.7165,134.5837,14.9241,0,U,64470,999,441,0,-.25E-5,0
MTG-S1,2025-143A,2026-07-13T06:37:04.080288,1.00273091,.00034997,0.5855,344.6471,261.9952,143.3604,0,U,64723,999,368,0,-.1E-6,0
DROR 1,2025-148A,2026-07-13T06:36:04.175712,1.00271586,.00019766,0.0493,262.2547,132.9767,350.9350,0,U,64784,999,355,0,-.37E-6,0
SHIYAN-29,2025-196A,2026-07-12T23:09:51.813792,1.00276908,.00134135,28.8488,18.2102,177.8791,177.5073,0,U,65486,999,313,0,-.284E-5,0
NUSANTARA LIMA (NUSANTARA 5),2025-205A,2026-07-13T05:26:36.057408,1.00270259,.000046,0.0048,108.0133,92.2195,285.3677,0,U,65588,999,298,0,-.36E-5,0
TJS-20,2025-238A,2026-07-12T22:21:46.568736,1.00274129,.00042822,5.4136,299.4489,181.2781,207.9699,0,U,66142,999,259,0,.3E-6,0
CMS-03 (GSAT-7R),2025-249B,2026-07-13T04:32:21.418656,1.00271135,.00014367,0.0339,267.8495,171.0530,354.2277,0,U,66311,999,260,0,-.79E-6,0
VIASAT-3 F2,2025-261A,2026-07-13T07:51:38.508192,1.00270640,.00007923,0.0028,133.6749,92.9185,103.5531,0,U,66454,999,305,0,-.236E-5,0
SHIJIAN-28 (SJ-28),2025-277A,2026-07-13T12:18:30.664224,1.00267655,.0001181,4.4720,271.7150,22.6051,298.5185,0,U,66549,999,241,0,-.359E-5,0
TJS-22,2025-290A,2026-07-12T19:22:51.874176,1.00269698,.0002696,1.4677,286.9079,319.1976,41.7959,0,U,66990,999,228,0,-.5E-7,0
TJS-23,2025-306A,2026-07-12T12:46:34.164768,1.00274777,.0004982,5.5312,297.3541,192.6213,167.6210,0,U,67226,999,214,0,.26E-6,0
FENGYUN 4C,2025-312A,2026-07-13T12:23:07.721376,1.00269020,.0000653,0.0381,174.1513,45.0000,31.0120,0,U,67246,999,204,0,-.327E-5,0
SHIJIAN-29A (SJ-29A),2025-315A,2026-07-13T04:57:21.725280,1.00272245,.00048506,3.4617,94.4870,52.9383,291.1535,0,U,67302,999,187,0,-.73E-6,0
SHIJIAN-29B (SJ-29B),2025-315C,2026-07-13T04:34:51.667392,1.00272531,.0004938,3.4606,94.4795,54.1739,284.3305,0,U,67403,999,194,0,-.74E-6,0
ELEKTRO-L 5,2026-028A,2026-07-12T23:32:12.769440,1.00271957,.0002054,0.2103,323.5750,175.8596,220.5701,0,U,67756,999,151,0,-.99E-6,0
JAM-E JAM 1,2026-028B,2026-07-13T05:04:15.697920,1.00272753,.0001736,0.2102,311.8978,321.4560,127.8153,0,U,67757,999,138,0,.154E-5,0
ECHOSTAR 25,2026-045A,2026-07-13T12:29:38.799744,1.00272192,.0001817,0.0258,61.3823,49.7665,257.6767,0,U,68126,999,125,0,0,0
TJS-24,2026-116A,2026-07-13T13:26:13.416000,1.00270163,.0000376,0.0734,95.3326,129.4474,358.5082,0,U,69235,999,49,0,-.235E-5,0
